1 35664U 93036APF 17017.73930820  .00019399  00000-0  56526-3 0  9991
2 35664  73.8387  44.4690 0022513   2.8060 357.3266 15.35078005418041
1 35664U 93036APF 17019.36850292  .00036396  00000-0  10523-2 0  9998
2 35664  73.8402  40.9302 0021993 357.5782   2.5312 15.35216493418295
1 35664U 93036APF 17020.41111723  .00031364  00000-0  90589-3 0  9996
2 35664  73.8305  38.6439 0021078 358.3142   1.7987 15.35297644418459
1 35664U 93036APF 17033.24350429  .00067457  00000-0  18628-2 0  9994
2 35664  73.8428  10.7919 0020468 323.6229  36.3583 15.36534417420421
1 35664U 93036APF 17034.28523366  .00053237  00000-0  14690-2 0  9997
2 35664  73.8419   8.5217 0020286 321.7743  38.2022 15.36626466420587
1 35664U 93036APF 17035.26177461  .00052342  00000-0  14397-2 0  9997
2 35664  73.8397   6.3875 0019285 320.7448  39.2357 15.36749894420736
1 35664U 93036APF 17036.23824634  .00053016  00000-0  14530-2 0  9994
2 35664  73.8392   4.2611 0019333 318.1180  41.8544 15.36857724420889
1 35664U 93036APF 17037.21464814 +.00053726 +00000-0 +14667-2 0  9992
2 35664 073.8393 002.1363 0019586 315.5227 044.4404 15.36970734421033
1 35664U 93036APF 17040.20855378  .00037751  00000-0  10235-2 0  9991
2 35664  73.8396 355.6153 0019522 307.9908  51.9534 15.37265379421490
1 35664U 93036APF 17042.16082199  .00045501  00000-0  12259-2 0  9991
2 35664  73.8395 351.3617 0018983 302.6632  57.2742 15.37430726421796
1 35664U 93036APF 17047.17064149  .00037427  00000-0  99634-3 0  9993
2 35664  73.8395 340.4462 0018683 289.8995  70.0197 15.37848969422563
1 35664U 93036APF 17048.14641701  .00054294  00000-0  14363-2 0  9992
2 35664  73.8396 338.3197 0018744 287.4241  72.4915 15.37957594422717
1 35664U 93036APF 17049.12211471  .00071956  00000-0  18903-2 0  9996
2 35664  73.8390 336.1903 0018569 284.4587  75.4558 15.38097411422863
1 35664U 93036APF 17050.09771549  .00052098  00000-0  13665-2 0  9997
2 35664  73.8383 334.0610 0018510 281.7124  78.2005 15.38234885423014
1 35664U 93036APF 17051.13826190  .00056001  00000-0  14610-2 0  9995
2 35664  73.8382 331.7915 0018581 279.1922  80.7181 15.38380880423177
1 35664U 93036APF 17051.46341448 +.00055771 +00000-0 +14524-2 0  9996
2 35664 073.8380 331.0814 0019200 280.0908 079.8131 15.38424866422738
1 35664U 93036APF 17052.17871822  .00058858  00000-0  15271-2 0  9998
2 35664  73.8380 329.5204 0019179 277.9321  81.9708 15.38525263423336
1 35664U 93036APF 17052.43881832 +.00062255 +00000-0 +16130-2 0  9990
2 35664 073.8381 328.9526 0019216 277.3933 082.5089 15.38552247422882
1 35664U 93036APF 17053.41414731  .00073686  00000-0  18984-2 0  9998
2 35664  73.8383 326.8237 0019239 274.8172  85.0837 15.38675644423520
1 35664U 93036APF 17054.45441030  .00066797  00000-0  17152-2 0  9996
2 35664  73.8382 324.5525 0019096 272.3833  87.5186 15.38810306423689
1 35664U 93036APF 17055.16953437  .00078334  00000-0  20009-2 0  9999
2 35664  73.8380 322.9916 0019019 270.1353  89.7674 15.38923320423790
1 35664U 93036APF 17055.42956500  .00107206  00000-0  27231-2 0  9997
2 35664  73.8379 322.4239 0019044 269.4773  90.4251 15.38975112423837
1 35664U 93036APF 17056.07960858  .00100764  00000-0  25521-2 0  9992
2 35664  73.8379 321.0044 0019034 267.6465  92.2562 15.39089800423930
1 35664U 93036APF 17056.40461347  .00085204  00000-0  21595-2 0  9996
2 35664  73.8380 320.2944 0019056 266.8879  93.0147 15.39132207423989
1 35664U 93036APF 17057.05459767  .00053206  00000-0  13514-2 0  9990
2 35664  73.8379 318.8746 0019040 265.4463  94.4568 15.39205451424083
1 35664U 93036APF 17057.37957659  .00060543  00000-0  15339-2 0  9997
2 35664  73.8378 318.1644 0019051 264.5810  95.3223 15.39248672424136
1 35664U 93036APF 17058.41946410  .00052350  00000-0  13237-2 0  9998
2 35664  73.8371 315.8924 0018986 262.0900  97.8152 15.39347729424291
1 35664U 93036APF 17059.06935961 +.00053965 +00000-0 +13613-2 0  9990
2 35664 073.8366 314.4726 0018929 260.3487 099.5581 15.39413895423908
1 35664U 93036APF 17060.36904795  .00083429  00000-0  20835-2 0  9998
2 35664  73.8361 311.6317 0018970 257.2693 102.6393 15.39592167424591
1 35664U 93036APF 17064.98135085  .00054677  00000-0  13355-2 0  9990
2 35664  73.8359 301.5407 0018801 246.9196 113.0029 15.40394235425302
1 35664U 93036APF 17066.02045348  .00061302  00000-0  14894-2 0  9991
2 35664  73.8355 299.2654 0018678 244.3273 115.6006 15.40527570425465
1 35664U 93036APF 17072.90238469  .00038248  00000-0  90952-3 0  9996
2 35664  73.8339 284.1902 0018090 230.9364 129.0234 15.41297413426527
1 35664U 93036APF 17072.90238469 +.00038248 +00000-0 +90952-3 0  9996
2 35664 073.8339 284.1902 0018090 230.9364 129.0234 15.41297413426033
1 35664U 93036APF 17075.88795572 +.00041578 +00000-0 +97968-3 0  9993
2 35664 073.8352 277.6486 0017885 225.0620 134.9138 15.41559961426490
1 35664U 93036APF 17075.88795572 +.00041578 +00000-0 +97968-3 0  9993
2 35664 073.8352 277.6486 0017885 225.0620 134.9138 15.41559961426984
1 35664U 93036APF 17078.87300913 +.00039218 +00000-0 +91723-3 0  9997
2 35664 073.8347 271.0981 0017327 217.6752 142.3244 15.41806248427446
1 35664U 93036APF 17086.78647536 +.00120859 +00000-0 +26929-2 0  9998
2 35664 073.8343 253.7273 0015552 205.5616 154.4825 15.42943461428660
1 35664U 93036APF 17087.82379374 +.00123557 +00000-0 +27246-2 0  9997
2 35664 073.8346 251.4480 0015133 205.2264 154.8207 15.43248986428826
1 35664U 93036APF 17096.05177344 +.00106911 +00000-0 +22200-2 0  9995
2 35664 073.8346 233.3331 0011897 191.2479 168.8466 15.45138483430091
1 35664U 93036APF 17099.02961622 +.00073340 +00000-0 +15024-2 0  9990
2 35664 073.8351 226.7643 0010800 185.5498 174.5594 15.45683252430555
1 35664U 93036APF 17102.00627034 +.00085949 +00000-0 +17213-2 0  9999
2 35664 073.8349 220.1896 0009720 179.2442 180.8784 15.46305679431016
1 35664U 93036APF 17103.62356966 +.00072430 +00000-0 +14389-2 0  9993
2 35664 073.8314 216.6139 0010757 178.1631 181.9620 15.46583929431262
1 35664U 93036APF 17105.62860740 +.00088160 +00000-0 +17234-2 0  9994
2 35664 073.8334 212.1827 0009623 173.6318 186.5016 15.47001546431576
1 35664U 93036APF 17106.92188801 +.00074141 +00000-0 +14407-2 0  9992
2 35664 073.8337 209.3262 0008474 174.6532 185.4771 15.47242370431288
1 35664U 93036APF 17106.98654680 +.00077055 +00000-0 +14961-2 0  9993
2 35664 073.8338 209.1835 0008421 174.4562 185.6743 15.47254858431292
1 35664U 93036APF 17108.60286252 +.00081338 +00000-0 +15625-2 0  9997
2 35664 073.8335 205.6077 0007906 170.8632 189.2724 15.47550987431542
1 35664U 93036APF 17109.57249870 +.00134590 +00000-0 +25483-2 0  9991
2 35664 073.8334 203.4616 0007518 168.7538 191.3842 15.47767145432188
1 35664U 93036APF 17110.92968937 +.00174297 +00000-0 +32307-2 0  9995
2 35664 073.8336 200.4570 0006695 165.6284 194.5119 15.48236818431905
1 35664U 93036APF 17110.92968937 +.00174297 +00000-0 +32307-2 0  9995
2 35664 073.8336 200.4570 0006695 165.6284 194.5119 15.48236818432399
1 35664U 93036APF 17116.87034521 +.00122836 +00000-0 +21348-2 0  9993
2 35664 073.8329 187.2771 0004162 148.2408 211.9056 15.50283528433318
1 35664U 93036APF 17118.16081615 +.00089497 +00000-0 +15430-2 0  9993
2 35664 073.8319 184.4074 0003891 142.6680 217.4803 15.50637537433516
1 35664U 93036APF 17119.83806530 +.00109919 +00000-0 +18643-2 0  9990
2 35664 073.8289 180.6788 0003116 129.8167 230.3320 15.51025207433771
1 35664U 93036APF 17123.44932223 +.00078285 +00000-0 +13016-2 0  9991
2 35664 073.8317 172.6399 0002587 125.9847 234.1606 15.51707787434337
1 35664U 93036APF 17124.80318519 +.00089055 +00000-0 +14683-2 0  9996
2 35664 073.8313 169.6241 0002424 119.0636 241.0820 15.51901842434541
1 35664U 93036APF 17126.09242133 +.00065399 +00000-0 +10754-2 0  9997
2 35664 073.8310 166.7519 0002264 113.5927 246.5524 15.52069587434743
1 35664U 93036APF 17128.09045015 +.00061249 +00000-0 +99815-3 0  9995
2 35664 073.8298 162.2983 0002155 109.0058 251.1389 15.52337934435058
1 35664U 93036APF 17133.37380964 +.00049015 +00000-0 +78014-3 0  9992
2 35664 073.8275 150.5101 0002019 104.4753 255.6685 15.53047856435875
1 35664U 93036APF 17138.33281742 +.00089615 +00000-0 +13779-2 0  9993
2 35664 073.8314 139.4444 0001686 108.4925 251.6472 15.53843883436649
1 35664U 93036APF 17145.28277250 +.00083275 +00000-0 +12081-2 0  9995
2 35664 073.8323 123.9033 0001812 142.5261 217.6080 15.55463872437718
1 35664U 93036APF 17146.24749190 +.00100767 +00000-0 +14494-2 0  9995
2 35664 073.8329 121.7415 0001950 137.2442 222.8925 15.55632633437864
1 35664U 93036APF 17146.24750475  .00093661  00000-0  13686-2 0  9999
2 35664  73.8537 121.7707 0001001  12.0407 348.1280 15.55501828422532
1 35664U 93036APF 17147.27640283 +.00086117 +00000-0 +12325-2 0  9995
2 35664 073.8296 119.4273 0003384 138.1654 221.9820 15.55818808438024
